[{"OBJECT_NAME":"STARLINK-33944","OBJECT_ID":"2025-117G","EPOCH":"2026-02-15T14:02:02.904576","MEAN_MOTION":15.3023336,"ECCENTRICITY":0.0001144,"INCLINATION":53.1609,"RA_OF_ASC_NODE":142.1271,"ARG_OF_PERICENTER":70.9819,"MEAN_ANOMALY":289.1306,"EPHEMERIS_TYPE":0,"CLASSIFICATION_TYPE":"U","NORAD_CAT_ID":64209,"ELEMENT_SET_NO":999,"REV_AT_EPOCH":4117,"BSTAR":0.0015781,"MEAN_MOTION_DOT":0.00046722,"MEAN_MOTION_DDOT":0},{"OBJECT_NAME":"STARLINK-34310","OBJECT_ID":"2025-117H","EPOCH":"2026-02-15T13:51:24.908832","MEAN_MOTION":15.30241138,"ECCENTRICITY":0.000134,"INCLINATION":53.1599,"RA_OF_ASC_NODE":142.0723,"ARG_OF_PERICENTER":66.2467,"MEAN_ANOMALY":293.8675,"EPHEMERIS_TYPE":0,"CLASSIFICATION_TYPE":"U","NORAD_CAT_ID":64210,"ELEMENT_SET_NO":999,"REV_AT_EPOCH":4114,"BSTAR":0.0012947,"MEAN_MOTION_DOT":0.00038233,"MEAN_MOTION_DDOT":0},{"OBJECT_NAME":"STARLINK-34258","OBJECT_ID":"2025-117J","EPOCH":"2026-02-15T16:42:47.537856","MEAN_MOTION":15.30224587,"ECCENTRICITY":0.00010005,"INCLINATION":53.1578,"RA_OF_ASC_NODE":141.3913,"ARG_OF_PERICENTER":90.938,"MEAN_ANOMALY":269.1735,"EPHEMERIS_TYPE":0,"CLASSIFICATION_TYPE":"U","NORAD_CAT_ID":64211,"ELEMENT_SET_NO":999,"REV_AT_EPOCH":4116,"BSTAR":0.00084169988,"MEAN_MOTION_DOT":0.00024671,"MEAN_MOTION_DDOT":0},{"OBJECT_NAME":"STARLINK-34284","OBJECT_ID":"2025-117K","EPOCH":"2026-02-15T13:43:48.377280","MEAN_MOTION":15.30218588,"ECCENTRICITY":0.0001041,"INCLINATION":53.1588,"RA_OF_ASC_NODE":142.0357,"ARG_OF_PERICENTER":101.9963,"MEAN_ANOMALY":258.1154,"EPHEMERIS_TYPE":0,"CLASSIFICATION_TYPE":"U","NORAD_CAT_ID":64212,"ELEMENT_SET_NO":999,"REV_AT_EPOCH":4114,"BSTAR":0.00076611,"MEAN_MOTION_DOT":0.00022412,"MEAN_MOTION_DDOT":0},{"OBJECT_NAME":"STARLINK-34332","OBJECT_ID":"2025-117L","EPOCH":"2026-02-15T13:30:17.578944","MEAN_MOTION":15.30216567,"ECCENTRICITY":0.0001162,"INCLINATION":53.1577,"RA_OF_ASC_NODE":142.687,"ARG_OF_PERICENTER":90.7745,"MEAN_ANOMALY":269.3389,"EPHEMERIS_TYPE":0,"CLASSIFICATION_TYPE":"U","NORAD_CAT_ID":64213,"ELEMENT_SET_NO":999,"REV_AT_EPOCH":4116,"BSTAR":0.00091369,"MEAN_MOTION_DOT":0.00026813,"MEAN_MOTION_DDOT":0},{"OBJECT_NAME":"STARLINK-34283","OBJECT_ID":"2025-117M","EPOCH":"2026-02-15T13:37:44.875200","MEAN_MOTION":15.30263204,"ECCENTRICITY":0.0001628,"INCLINATION":53.1583,"RA_OF_ASC_NODE":142.0161,"ARG_OF_PERICENTER":68.2411,"MEAN_ANOMALY":291.8763,"EPHEMERIS_TYPE":0,"CLASSIFICATION_TYPE":"U","NORAD_CAT_ID":64214,"ELEMENT_SET_NO":999,"REV_AT_EPOCH":4114,"BSTAR":0.0027778,"MEAN_MOTION_DOT":0.00082998,"MEAN_MOTION_DDOT":0},{"OBJECT_NAME":"STARLINK-34349","OBJECT_ID":"2025-117N","EPOCH":"2026-02-15T12:56:51.833184","MEAN_MOTION":15.30218203,"ECCENTRICITY":0.0001617,"INCLINATION":53.1591,"RA_OF_ASC_NODE":142.5403,"ARG_OF_PERICENTER":90.1319,"MEAN_ANOMALY":269.9867,"EPHEMERIS_TYPE":0,"CLASSIFICATION_TYPE":"U","NORAD_CAT_ID":64215,"ELEMENT_SET_NO":999,"REV_AT_EPOCH":4113,"BSTAR":0.00097409,"MEAN_MOTION_DOT":0.00028618,"MEAN_MOTION_DDOT":0},{"OBJECT_NAME":"STARLINK-34296","OBJECT_ID":"2025-117P","EPOCH":"2026-02-15T15:40:39.169632","MEAN_MOTION":15.30222681,"ECCENTRICITY":0.00011381,"INCLINATION":53.1602,"RA_OF_ASC_NODE":141.8296,"ARG_OF_PERICENTER":85.5519,"MEAN_ANOMALY":274.5612,"EPHEMERIS_TYPE":0,"CLASSIFICATION_TYPE":"U","NORAD_CAT_ID":64216,"ELEMENT_SET_NO":999,"REV_AT_EPOCH":4118,"BSTAR":0.001064273,"MEAN_MOTION_DOT":0.00031317,"MEAN_MOTION_DDOT":0},{"OBJECT_NAME":"STARLINK-34320","OBJECT_ID":"2025-117Q","EPOCH":"2026-02-15T13:27:15.464160","MEAN_MOTION":15.30216601,"ECCENTRICITY":0.0001081,"INCLINATION":53.1584,"RA_OF_ASC_NODE":142.6778,"ARG_OF_PERICENTER":66.5621,"MEAN_ANOMALY":293.5493,"EPHEMERIS_TYPE":0,"CLASSIFICATION_TYPE":"U","NORAD_CAT_ID":64217,"ELEMENT_SET_NO":999,"REV_AT_EPOCH":4113,"BSTAR":0.00090477,"MEAN_MOTION_DOT":0.00026547,"MEAN_MOTION_DDOT":0},{"OBJECT_NAME":"STARLINK-34300","OBJECT_ID":"2025-117R","EPOCH":"2026-02-15T13:52:55.618464","MEAN_MOTION":15.30214445,"ECCENTRICITY":0.0001263,"INCLINATION":53.1602,"RA_OF_ASC_NODE":142.0788,"ARG_OF_PERICENTER":79.6677,"MEAN_ANOMALY":280.4466,"EPHEMERIS_TYPE":0,"CLASSIFICATION_TYPE":"U","NORAD_CAT_ID":64218,"ELEMENT_SET_NO":999,"REV_AT_EPOCH":4114,"BSTAR":0.0010377,"MEAN_MOTION_DOT":0.00030514,"MEAN_MOTION_DDOT":0},{"OBJECT_NAME":"STARLINK-34323","OBJECT_ID":"2025-117S","EPOCH":"2026-02-15T15:34:34.619520","MEAN_MOTION":15.30237463,"ECCENTRICITY":0.0001787,"INCLINATION":53.1596,"RA_OF_ASC_NODE":141.8077,"ARG_OF_PERICENTER":51.0132,"MEAN_ANOMALY":309.1028,"EPHEMERIS_TYPE":0,"CLASSIFICATION_TYPE":"U","NORAD_CAT_ID":64219,"ELEMENT_SET_NO":999,"REV_AT_EPOCH":4118,"BSTAR":0.0012573909,"MEAN_MOTION_DOT":0.00037111,"MEAN_MOTION_DDOT":0},{"OBJECT_NAME":"STARLINK-34328","OBJECT_ID":"2025-117T","EPOCH":"2026-02-15T12:47:43.886112","MEAN_MOTION":15.30243265,"ECCENTRICITY":0.0001365,"INCLINATION":53.1588,"RA_OF_ASC_NODE":142.5039,"ARG_OF_PERICENTER":76.2603,"MEAN_ANOMALY":283.855,"EPHEMERIS_TYPE":0,"CLASSIFICATION_TYPE":"U","NORAD_CAT_ID":64220,"ELEMENT_SET_NO":999,"REV_AT_EPOCH":4113,"BSTAR":0.0013916,"MEAN_MOTION_DOT":0.00041139,"MEAN_MOTION_DDOT":0},{"OBJECT_NAME":"STARLINK-34326","OBJECT_ID":"2025-117U","EPOCH":"2026-02-15T12:50:48.737184","MEAN_MOTION":15.30196197,"ECCENTRICITY":0.0001328,"INCLINATION":53.1591,"RA_OF_ASC_NODE":142.5169,"ARG_OF_PERICENTER":82.4654,"MEAN_ANOMALY":277.6498,"EPHEMERIS_TYPE":0,"CLASSIFICATION_TYPE":"U","NORAD_CAT_ID":64221,"ELEMENT_SET_NO":999,"REV_AT_EPOCH":4116,"BSTAR":0.0013536,"MEAN_MOTION_DOT":0.00039942,"MEAN_MOTION_DDOT":0},{"OBJECT_NAME":"STARLINK-34318","OBJECT_ID":"2025-117V","EPOCH":"2026-02-15T13:01:25.452480","MEAN_MOTION":15.30219925,"ECCENTRICITY":0.0001459,"INCLINATION":53.1594,"RA_OF_ASC_NODE":142.5642,"ARG_OF_PERICENTER":85.1629,"MEAN_ANOMALY":274.9538,"EPHEMERIS_TYPE":0,"CLASSIFICATION_TYPE":"U","NORAD_CAT_ID":64222,"ELEMENT_SET_NO":999,"REV_AT_EPOCH":4113,"BSTAR":0.00098242,"MEAN_MOTION_DOT":0.00028868,"MEAN_MOTION_DDOT":0},{"OBJECT_NAME":"STARLINK-34337","OBJECT_ID":"2025-117W","EPOCH":"2026-02-15T13:10:34.195296","MEAN_MOTION":15.30231337,"ECCENTRICITY":0.0001619,"INCLINATION":53.1592,"RA_OF_ASC_NODE":142.6005,"ARG_OF_PERICENTER":99.7881,"MEAN_ANOMALY":260.3302,"EPHEMERIS_TYPE":0,"CLASSIFICATION_TYPE":"U","NORAD_CAT_ID":64223,"ELEMENT_SET_NO":999,"REV_AT_EPOCH":4113,"BSTAR":0.0022512,"MEAN_MOTION_DOT":0.00066982,"MEAN_MOTION_DDOT":0},{"OBJECT_NAME":"STARLINK-34304","OBJECT_ID":"2025-117X","EPOCH":"2026-02-15T12:37:07.125888","MEAN_MOTION":15.30208292,"ECCENTRICITY":0.0001562,"INCLINATION":53.1595,"RA_OF_ASC_NODE":142.4544,"ARG_OF_PERICENTER":92.3595,"MEAN_ANOMALY":267.7584,"EPHEMERIS_TYPE":0,"CLASSIFICATION_TYPE":"U","NORAD_CAT_ID":64224,"ELEMENT_SET_NO":999,"REV_AT_EPOCH":4116,"BSTAR":0.0010596,"MEAN_MOTION_DOT":0.00031163,"MEAN_MOTION_DDOT":0},{"OBJECT_NAME":"STARLINK-34289","OBJECT_ID":"2025-117Y","EPOCH":"2026-02-15T16:00:24.437664","MEAN_MOTION":15.30220891,"ECCENTRICITY":0.00013575,"INCLINATION":53.1599,"RA_OF_ASC_NODE":141.9112,"ARG_OF_PERICENTER":88.4185,"MEAN_ANOMALY":271.6971,"EPHEMERIS_TYPE":0,"CLASSIFICATION_TYPE":"U","NORAD_CAT_ID":64225,"ELEMENT_SET_NO":999,"REV_AT_EPOCH":4118,"BSTAR":0.00081924105,"MEAN_MOTION_DOT":0.00023998,"MEAN_MOTION_DDOT":0},{"OBJECT_NAME":"STARLINK-34347","OBJECT_ID":"2025-117Z","EPOCH":"2026-02-15T16:14:05.082144","MEAN_MOTION":15.30224105,"ECCENTRICITY":0.00014733,"INCLINATION":53.1589,"RA_OF_ASC_NODE":141.9713,"ARG_OF_PERICENTER":82.0563,"MEAN_ANOMALY":278.0605,"EPHEMERIS_TYPE":0,"CLASSIFICATION_TYPE":"U","NORAD_CAT_ID":64226,"ELEMENT_SET_NO":999,"REV_AT_EPOCH":4115,"BSTAR":0.00096637311,"MEAN_MOTION_DOT":0.00028393,"MEAN_MOTION_DDOT":0},{"OBJECT_NAME":"STARLINK-34330","OBJECT_ID":"2025-117AA","EPOCH":"2026-02-15T14:17:14.230176","MEAN_MOTION":15.30224402,"ECCENTRICITY":0.0001291,"INCLINATION":53.1605,"RA_OF_ASC_NODE":142.1754,"ARG_OF_PERICENTER":86.4527,"MEAN_ANOMALY":273.6621,"EPHEMERIS_TYPE":0,"CLASSIFICATION_TYPE":"U","NORAD_CAT_ID":64227,"ELEMENT_SET_NO":999,"REV_AT_EPOCH":4114,"BSTAR":0.0011272,"MEAN_MOTION_DOT":0.000332,"MEAN_MOTION_DDOT":0},{"OBJECT_NAME":"STARLINK-34167","OBJECT_ID":"2025-117AB","EPOCH":"2026-02-15T16:47:22.346880","MEAN_MOTION":15.30212799,"ECCENTRICITY":0.00013815,"INCLINATION":53.159,"RA_OF_ASC_NODE":141.4054,"ARG_OF_PERICENTER":77.3309,"MEAN_ANOMALY":282.7846,"EPHEMERIS_TYPE":0,"CLASSIFICATION_TYPE":"U","NORAD_CAT_ID":64228,"ELEMENT_SET_NO":999,"REV_AT_EPOCH":4119,"BSTAR":0.0010632521,"MEAN_MOTION_DOT":0.00031276,"MEAN_MOTION_DDOT":0},{"OBJECT_NAME":"STARLINK-34241","OBJECT_ID":"2025-117AC","EPOCH":"2026-02-15T16:30:48.796128","MEAN_MOTION":15.30226908,"ECCENTRICITY":0.0001355,"INCLINATION":53.1592,"RA_OF_ASC_NODE":142.1095,"ARG_OF_PERICENTER":79.7877,"MEAN_ANOMALY":280.3276,"EPHEMERIS_TYPE":0,"CLASSIFICATION_TYPE":"U","NORAD_CAT_ID":64229,"ELEMENT_SET_NO":999,"REV_AT_EPOCH":4118,"BSTAR":0.0010352018,"MEAN_MOTION_DOT":0.00030452,"MEAN_MOTION_DDOT":0},{"OBJECT_NAME":"STARLINK-11686 [DTC]","OBJECT_ID":"2025-119A","EPOCH":"2026-02-15T19:57:21.718368","MEAN_MOTION":15.71030273,"ECCENTRICITY":0.00012046,"INCLINATION":42.9997,"RA_OF_ASC_NODE":341.1686,"ARG_OF_PERICENTER":246.8527,"MEAN_ANOMALY":113.2214,"EPHEMERIS_TYPE":0,"CLASSIFICATION_TYPE":"U","NORAD_CAT_ID":64233,"ELEMENT_SET_NO":999,"REV_AT_EPOCH":4180,"BSTAR":0.0019572584,"MEAN_MOTION_DOT":0.00260813,"MEAN_MOTION_DDOT":0},{"OBJECT_NAME":"STARLINK-11682 [DTC]","OBJECT_ID":"2025-119B","EPOCH":"2026-02-15T05:03:24.602688","MEAN_MOTION":15.70881631,"ECCENTRICITY":0.0001403,"INCLINATION":42.9995,"RA_OF_ASC_NODE":345.1219,"ARG_OF_PERICENTER":250.0169,"MEAN_ANOMALY":110.0548,"EPHEMERIS_TYPE":0,"CLASSIFICATION_TYPE":"U","NORAD_CAT_ID":64234,"ELEMENT_SET_NO":999,"REV_AT_EPOCH":4170,"BSTAR":0.0018323,"MEAN_MOTION_DOT":0.0024206,"MEAN_MOTION_DDOT":0}]
